NORAD_CAT_ID,OBJECT_NAME,OBJECT_TYPE,EPOCH,MEAN_MOTION,ECCENTRICITY,INCLINATION,RA_OF_ASC_NODE,ARG_OF_PERICENTER,MEAN_ANOMALY,BSTAR,MEAN_MOTION_DOT,MEAN_MOTION_DDOT,TLE_LINE0,TLE_LINE1,TLE_LINE2,SEMIMAJOR_AXIS,PERIOD,APOGEE,PERIGEE,DECAYED
50827.0,STARLINK-3329,PAYLOAD,2022-03-18 08:00:01,15.48942809,0.0002422,53.2169,212.836,18.8521,4.0265,-0.014346,-0.00728822,0.0,0 STARLINK-3329,1 50827U 22001AA  22077.33334491 -.00728822  00000-0 -14346-1 0  9995,2 50827  53.2169 212.8360 0002422  18.8521   4.0265 15.48942809 12366,6797.954000000002,92.967,421.466,418.173,0.0
50827.0,STARLINK-3329,PAYLOAD,2022-03-18 14:00:01,15.48553906,0.0002474,53.2172,211.642,18.4138,319.1238,-0.014357,-0.00720134,0.0,0 STARLINK-3329,1 50827U 22001AA  22077.58334491 -.00720134  00000-0 -14357-1 0  9992,2 50827  53.2172 211.6420 0002474  18.4138 319.1238 15.48553906  3682,6799.093000000003,92.99,422.64,419.276,0.0
50827.0,STARLINK-3329,PAYLOAD,2022-03-18 22:00:00,15.480449900000002,0.00023,53.2171,210.0513,18.9075,17.5216,-0.01463,-0.0072073,0.0,0 STARLINK-3329,1 50827U 22001AA  22077.91667824 -.00720730  00000-0 -14630-1 0  9994,2 50827  53.2171 210.0513 0002300  18.9075  17.5216 15.48044990 12458,6800.583000000001,93.021,424.012,420.884,0.0
50827.0,STARLINK-3329,PAYLOAD,2022-03-19 14:00:01,15.47029273,0.0003044,53.2172,206.8722,342.7226,169.8771,-0.015372,-0.00730244,0.0,0 STARLINK-3329,1 50827U 22001AA  22078.58334491 -.00730244  00000-0 -15372-1 0  9994,2 50827  53.2172 206.8722 0003044 342.7226 169.8771 15.47029273  3662,6803.559,93.082,427.495,423.353,0.0
50827.0,STARLINK-3329,PAYLOAD,2022-03-19 22:00:01,15.46517295,0.0001931,53.2171,205.2846,300.7246,269.1071,-0.01559,-0.00727524,0.0,0 STARLINK-3329,1 50827U 22001AA  22078.91668981 -.00727524  00000-0 -15590-1 0  9994,2 50827  53.2171 205.2846 0001931 300.7246 269.1071 15.46517295 12606,6805.06,93.112,428.24,425.611,0.0
50827.0,STARLINK-3329,PAYLOAD,2022-03-20 14:00:01,15.4548807,0.0005959,53.2175,202.1132,301.1361,21.1277,-0.015666,-0.00707936,0.0,0 STARLINK-3329,1 50827U 22001AA  22079.58334491 -.00707936  00000-0 -15666-1 0  9993,2 50827  53.2175 202.1132 0005959 301.1361  21.1277 15.45488070 12714,6808.081,93.174,434.003,425.889,0.0
50827.0,STARLINK-3329,PAYLOAD,2022-03-20 22:00:01,15.44981662,0.0002631,53.2173,200.529,285.2023,92.4526,-0.016073,-0.00712622,0.0,0 STARLINK-3329,1 50827U 22001AA  22079.91668981 -.00712622  00000-0 -16073-1 0  9995,2 50827  53.2173 200.5290 0002631 285.2023  92.4526 15.44981662  3688,6809.569,93.205,433.226,429.642,0.0
50827.0,STARLINK-3329,PAYLOAD,2022-03-21 14:00:01,15.43966982,0.000177,53.2174,197.3653,26.1581,100.2489,-0.016932,-0.00724019,0.0,0 STARLINK-3329,1 50827U 22001AA  22080.58334491 -.00724019  00000-0 -16932-1 0  9993,2 50827  53.2174 197.3653 0001770  26.1581 100.2489 15.43966982  3660,6812.552,93.266,435.62300000000016,433.211,0.0
50827.0,STARLINK-3329,PAYLOAD,2022-03-21 22:00:00,15.43455135,0.0001398,53.2171,195.7845,62.00100000000001,117.8968,-0.017148,-0.00720787,0.0,0 STARLINK-3329,1 50827U 22001AA  22080.91667824 -.00720787  00000-0 -17148-1 0  9997,2 50827  53.2171 195.7845 0001398  62.0010 117.8968 15.43455135 12911,6814.058000000001,93.297,436.876,434.971,0.0
50827.0,STARLINK-3329,PAYLOAD,2022-03-22 14:00:01,15.42434193,0.0001450999999999,53.2174,192.6281,55.4927,229.5462,-0.01771,-0.00719249,0.0,0 STARLINK-3329,1 50827U 22001AA  22081.58334491 -.00719249  00000-0 -17710-1 0  9998,2 50827  53.2174 192.6281 0001451  55.4927 229.5462 15.42434193  3692,6817.065,93.359,439.919,437.94,0.0
50827.0,STARLINK-3329,PAYLOAD,2022-03-22 22:00:01,15.41925702,0.000115,53.2173,191.0509,75.4061,261.3482,-0.018081,-0.00721611,0.0,0 STARLINK-3329,1 50827U 22001AA  22081.91668981 -.00721611  00000-0 -18081-1 0  9997,2 50827  53.2173 191.0509 0001150  75.4061 261.3482 15.41925702  3689,6818.563,93.39,441.212,439.644,0.0
50827.0,STARLINK-3329,PAYLOAD,2022-03-23 08:00:01,15.41260757,0.0001513,53.2168,189.0825,54.6538,75.7504,-0.01736,-0.00680701,0.0,0 STARLINK-3329,1 50827U 22001AA  22082.33334491 -.00680701  00000-0 -17360-1 0  9993,2 50827  53.2168 189.0825 0001513  54.6538  75.7504 15.41260757 13137,6820.524,93.43,443.421,441.357,0.0
50827.0,STARLINK-3329,PAYLOAD,2022-03-23 14:00:01,15.40906388,0.0001493,53.2173,187.9021,46.8677,31.286,-0.018731,-0.0072244,0.0,0 STARLINK-3329,1 50827U 22001AA  22082.58334491 -.00722440  00000-0 -18731-1 0  9990,2 50827  53.2173 187.9021 0001493  46.8677  31.2860 15.40906388  3689,6821.57,93.451,444.453,442.417,0.0
50827.0,STARLINK-3329,PAYLOAD,2022-03-23 22:00:00,15.40394523,0.0001274,53.2172,186.3284,66.9053,61.0625,-0.018953,-0.00718888,0.0,0 STARLINK-3329,1 50827U 22001AA  22082.91667824 -.00718888  00000-0 -18953-1 0  9993,2 50827  53.2172 186.3284 0001274  66.9053  61.0625 15.40394523 13223,6823.081,93.483,445.815,444.077,0.0
50827.0,STARLINK-3329,PAYLOAD,2022-03-24 14:00:01,15.393739000000002,0.0001575,53.2173,183.1867,54.4524,171.303,-0.019576,-0.00717933,0.0,0 STARLINK-3329,1 50827U 22001AA  22083.58334491 -.00717933  00000-0 -19576-1 0  9990,2 50827  53.2173 183.1867 0001575  54.4524 171.3030 15.39373900  3650,6826.097,93.545,449.037,446.886,0.0
50827.0,STARLINK-3329,PAYLOAD,2022-03-24 22:00:00,15.38866077,0.000132,53.2173,181.6165,67.6956,206.0342,-0.020021,-0.0072171,0.0,0 STARLINK-3329,1 50827U 22001AA  22083.91667824 -.00721710  00000-0 -20021-1 0  9991,2 50827  53.2173 181.6165 0001320  67.6956 206.0342 15.38866077  3672,6827.598000000001,93.575,450.364,448.562,0.0
50827.0,STARLINK-3329,PAYLOAD,2022-03-25 00:00:02,15.38737854,0.0001176,53.2175,181.2239,65.7553,309.9371,-0.020066,-0.00720372,0.0,0 STARLINK-3329,1 50827U 22001AA  22084.00002315 -.00720372  00000-0 -20066-1 0  9992,2 50827  53.2175 181.2239 0001176  65.7553 309.9371 15.38737854 13398,6827.978,93.583,450.645,449.04,0.0
50827.0,STARLINK-3329,PAYLOAD,2022-03-25 14:00:01,15.37846385,0.0001508,53.2175,178.4824,45.9473,321.8927,-0.020708,-0.00721917,0.0,0 STARLINK-3329,1 50827U 22001AA  22084.58334491 -.00721917  00000-0 -20708-1 0  9997,2 50827  53.2175 178.4824 0001508  45.9473 321.8927 15.37846385  3653,6830.616,93.637,453.511,451.451,0.0
50827.0,STARLINK-3329,PAYLOAD,2022-03-25 22:00:01,15.37335093,0.0001252999999999,53.2174,176.9157,60.2603,353.7811,-0.02098,-0.00719451,0.0,0 STARLINK-3329,1 50827U 22001AA  22084.91668981 -.00719451  00000-0 -20980-1 0  9990,2 50827  53.2174 176.9157 0001253  60.2603 353.7811 15.37335093  3673,6832.13,93.669,454.851,453.139,0.0
50827.0,STARLINK-3329,PAYLOAD,2022-03-26 06:00:00,15.36824172,0.0001405,53.2176,175.3503,54.7254,44.776,-0.021256,-0.00717107,0.0,0 STARLINK-3329,1 50827U 22001AA  22085.25001157 -.00717107  00000-0 -21256-1 0  9997,2 50827  53.2176 175.3503 0001405  54.7254  44.7760 15.36824172 13583,6833.645,93.7,456.47,454.549,0.0
50827.0,STARLINK-3329,PAYLOAD,2022-03-26 14:00:01,15.36315039,0.0001737,53.2174,173.7891,43.0472,101.3636,-0.021671,-0.00719028,0.0,0 STARLINK-3329,1 50827U 22001AA  22085.58334491 -.00719028  00000-0 -21671-1 0  9998,2 50827  53.2174 173.7891 0001737  43.0472 101.3636 15.36315039  3649,6835.154,93.731,458.207,455.832,0.0
50827.0,STARLINK-3329,PAYLOAD,2022-03-26 22:00:00,15.35805733,0.0001459,53.2173,172.2257,59.3287,129.3806,-0.022069,-0.00720142,0.0,0 STARLINK-3329,1 50827U 22001AA  22085.91667824 -.00720142  00000-0 -22069-1 0  9995,2 50827  53.2173 172.2257 0001459  59.3287 129.3806 15.35805733  3668,6836.665,93.762,459.528,457.533,0.0
50827.0,STARLINK-3329,PAYLOAD,2022-03-27 06:00:00,15.35294657,0.0001583,53.2175,170.6642,53.6155,178.7793,-0.022331,-0.00717059,0.0,0 STARLINK-3329,1 50827U 22001AA  22086.25001157 -.00717059  00000-0 -22331-1 0  9999,2 50827  53.2175 170.6642 0001583  53.6155 178.7793 15.35294657 13738,6838.182,93.793,461.13,458.965,0.0
50827.0,STARLINK-3329,PAYLOAD,2022-03-27 14:00:01,15.34784507,0.0001611,53.2176,169.1064,49.3295,226.1368,-0.02272,-0.00717651,0.0,0 STARLINK-3329,1 50827U 22001AA  22086.58334491 -.00717651  00000-0 -22720-1 0  9995,2 50827  53.2176 169.1064 0001611  49.3295 226.1368 15.34784507  3663,6839.698,93.824,462.665,460.461,0.0
50827.0,STARLINK-3329,PAYLOAD,2022-03-27 22:00:01,15.34276288,0.0001299,53.2174,167.5466,61.6704,256.3198,-0.023216,-0.00721152,0.0,0 STARLINK-3329,1 50827U 22001AA  22086.91668981 -.00721152  00000-0 -23216-1 0  9998,2 50827  53.2174 167.5466 0001299  61.6704 256.3198 15.34276288  3661,6841.208000000001,93.855,463.962,462.184,0.0
50827.0,STARLINK-3329,PAYLOAD,2022-03-28 06:00:00,15.33764406,0.0001371,53.2176,165.989,52.9186,306.855,-0.023441,-0.00716717,0.0,0 STARLINK-3329,1 50827U 22001AA  22087.25001157 -.00716717  00000-0 -23441-1 0  9993,2 50827  53.2176 165.9890 0001371  52.9186 306.8550 15.33764406 13896,6842.73,93.887,465.533,463.657,0.0
50827.0,STARLINK-3329,PAYLOAD,2022-03-28 14:00:01,15.33255588,0.0001473,53.2175,164.4347,47.8136,353.2567,-0.023933,-0.0071978,0.0,0 STARLINK-3329,1 50827U 22001AA  22087.58335648 -.00719780  00000-0 -23933-1 0  9993,2 50827  53.2175 164.4347 0001473  47.8136 353.2567 15.33255588  3661,6844.244000000002,93.918,467.117,465.101,0.0
50827.0,STARLINK-3329,PAYLOAD,2022-03-28 22:00:00,15.32744792,0.0001354,53.2174,162.8786,54.4372,27.1914,-0.024262,-0.00718077,0.0,0 STARLINK-3329,1 50827U 22001AA  22087.91667824 -.00718077  00000-0 -24262-1 0  9998,2 50827  53.2174 162.8786 0001354  54.4372  27.1914 15.32744792  3654,6845.764,93.949,468.556,466.702,0.0
50827.0,STARLINK-3329,PAYLOAD,2022-03-29 06:00:02,15.32151248,0.0001434,53.2166,161.3255,48.1043,73.6385,-0.020508,-0.0060351999999999,0.0,0 STARLINK-3329,1 50827U 22001AA  22088.25002315 -.00603520  00000-0 -20508-1 0  9999,2 50827  53.2166 161.3255 0001434  48.1043  73.6385 15.32151248 14045,6847.531999999997,93.985,470.379,468.415,0.0
